NORAD_CAT_ID,OBJECT_NAME,OBJECT_TYPE,EPOCH,MEAN_MOTION,ECCENTRICITY,INCLINATION,RA_OF_ASC_NODE,ARG_OF_PERICENTER,MEAN_ANOMALY,BSTAR,MEAN_MOTION_DOT,MEAN_MOTION_DDOT,TLE_LINE0,TLE_LINE1,TLE_LINE2,SEMIMAJOR_AXIS,PERIOD,APOGEE,PERIGEE,DECAYED
53543.0,STARLINK-4297,PAYLOAD,2024-07-29 21:30:28,15.08829241,0.0002162,53.2168,182.8975,90.6598,269.4642,3.1382e-06,-2.38e-06,0.0,0 STARLINK-4297,1 53543U 22101S   24211.89615957 -.00000238  00000-0  31382-5 0  9992,2 53543  53.2168 182.8975 0002162  90.6598 269.4642 15.08829241108254,6917.913,95.438,541.274,538.283,0.0
53543.0,STARLINK-4297,PAYLOAD,2024-07-30 02:16:38,15.08821567,0.0001778,53.2166,182.0015,81.0732,279.0461,-0.00015996,-2.832e-05,0.0,0 STARLINK-4297,1 53543U 22101S   24212.09489143 -.00002832  00000-0 -15996-3 0  9995,2 53543  53.2166 182.0015 0001778  81.0732 279.0461 15.08821567107590,6917.937,95.439,541.032,538.572,0.0
53543.0,STARLINK-4297,PAYLOAD,2024-07-30 05:27:25,15.08816912,0.0001327,53.2164,181.4099,88.1727,271.9417,-0.00013436,-2.424e-05,0.0,0 STARLINK-4297,1 53543U 22101S   24212.22737408 -.00002424  00000-0 -13436-3 0  9994,2 53543  53.2164 181.4099 0001327  88.1727 271.9417 15.08816912108305,6917.951,95.439,540.734,538.898,0.0
53543.0,STARLINK-4297,PAYLOAD,2024-07-30 21:21:16,15.0883345,0.000154,53.2171,178.4359,93.0424,267.0744,-0.00016915,-2.979e-05,0.0,0 STARLINK-4297,1 53543U 22101S   24212.88976987 -.00002979  00000-0 -16915-3 0  9993,2 53543  53.2171 178.4359 0001540  93.0424 267.0744 15.08833450107713,6917.9,95.438,540.831,538.7,0.0
53543.0,STARLINK-4297,PAYLOAD,2024-07-31 05:18:10,15.08847979,0.0001313,53.2166,176.9494,87.602,272.5123,-2.4719e-05,-6.81e-06,0.0,0 STARLINK-4297,1 53543U 22101S   24213.22095604 -.00000681  00000-0 -24719-4 0  9990,2 53543  53.2166 176.9494 0001313  87.6020 272.5123 15.08847979107767,6917.856,95.437,540.629,538.813,0.0
53543.0,STARLINK-4297,PAYLOAD,2024-07-31 21:12:03,15.08829449,0.0001214,53.2151,173.9754,83.1226,276.9904,0.00041199,6.273e-05,0.0,0 STARLINK-4297,1 53543U 22101S   24213.88337051  .00006273  00000-0  41199-3 0  9998,2 53543  53.2151 173.9754 0001214  83.1226 276.9904 15.08829449107864,6917.913,95.438,540.617,538.938,0.0
53543.0,STARLINK-4297,PAYLOAD,2024-08-01 03:33:35,15.08843455,0.000119,53.214,172.7853,85.789,274.3238,0.00054435,8.387e-05,0.0,0 STARLINK-4297,1 53543U 22101S   24214.14832794  .00008387  00000-0  54435-3 0  9997,2 53543  53.2140 172.7853 0001190  85.7890 274.3238 15.08843455107907,6917.87,95.437,540.558,538.912,0.0
53543.0,STARLINK-4297,PAYLOAD,2024-08-02 06:35:08,15.08858983,0.0001188,53.2132,167.7294,87.5398,272.573,0.00046878,7.184e-05,0.0,0 STARLINK-4297,1 53543U 22101S   24215.27439863  .00007184  00000-0  46878-3 0  9998,2 53543  53.2132 167.7294 0001188  87.5398 272.5730 15.08858983108079,6917.822,95.436,540.509,538.866,0.0
53543.0,STARLINK-4297,PAYLOAD,2024-08-02 14:32:04,15.08840447,0.0001751,53.2153,166.2449,76.2878,283.8309,2.5821e-05,1.23e-06,0.0,0 STARLINK-4297,1 53543U 22101S   24215.60560603  .00000123  00000-0  25821-4 0  9994,2 53543  53.2153 166.2449 0001751  76.2878 283.8309 15.08840447108817,6917.879,95.438,540.955,538.533,0.0
53543.0,STARLINK-4297,PAYLOAD,2024-08-02 20:53:36,15.08842013,0.0001745,53.2128,165.0533,86.064,274.0551,8.6403e-05,1.087e-05,0.0,0 STARLINK-4297,1 53543U 22101S   24215.87056564  .00001087  00000-0  86403-4 0  9992,2 53543  53.2128 165.0533 0001745  86.0640 274.0551 15.08842013108169,6917.874,95.437,540.946,538.532,0.0
53543.0,STARLINK-4297,PAYLOAD,2024-08-03 06:25:55,15.08840364,0.0001594,53.2171,163.2707,89.3072,270.8102,0.00010053,1.312e-05,0.0,0 STARLINK-4297,1 53543U 22101S   24216.26800659  .00001312  00000-0  10053-3 0  9996,2 53543  53.2171 163.2707 0001594  89.3072 270.8102 15.08840364108913,6917.879,95.438,540.847,538.642,0.0
53543.0,STARLINK-4297,PAYLOAD,2024-08-04 03:05:56,15.08852878,0.0001399,53.2162,159.4027,85.2757,274.8395,0.00049961,7.675e-05,0.0,0 STARLINK-4297,1 53543U 22101S   24217.12912425  .00007675  00000-0  49961-3 0  9995,2 53543  53.2162 159.4027 0001399  85.2757 274.8395 15.08852878108352,6917.841,95.437,540.674,538.738,0.0
53543.0,STARLINK-4297,PAYLOAD,2024-08-04 12:38:15,15.08849186,0.0001429,53.2162,157.6197,84.7475,275.368,0.00038688,5.876e-05,0.0,0 STARLINK-4297,1 53543U 22101S   24217.52656428  .00005876  00000-0  38688-3 0  9992,2 53543  53.2162 157.6197 0001429  84.7475 275.3680 15.08849186109100,6917.852,95.437,540.706,538.729,0.0
53543.0,STARLINK-4297,PAYLOAD,2024-08-05 02:56:42,15.08881347,0.0001533,53.2159,154.9438,98.6231,261.4935,0.0011543,0.00018151,0.0,0 STARLINK-4297,1 53543U 22101S   24218.12271334  .00018151  00000-0  11543-2 0  9998,2 53543  53.2159 154.9438 0001533  98.6231 261.4935 15.08881347108501,6917.754,95.435,540.68,538.559,0.0
53543.0,STARLINK-4297,PAYLOAD,2024-08-05 12:29:01,15.08835499,0.000113,53.2168,153.1591,65.797,294.314,-0.00034125,-5.714e-05,0.0,0 STARLINK-4297,1 53543U 22101S   24218.52016045 -.00005714  00000-0 -34125-3 0  9993,2 53543  53.2168 153.1591 0001130  65.7970 294.3140 15.08835499108566,6917.894,95.438,540.541,538.977,0.0
53543.0,STARLINK-4297,PAYLOAD,2024-08-06 02:47:31,15.08810644,0.0001436,53.2163,150.4884,102.0074,258.1079,-0.00050685,-8.339e-05,0.0,0 STARLINK-4297,1 53543U 22101S   24219.11633886 -.00008339  00000-0 -50685-3 0  9992,2 53543  53.2163 150.4884 0001436 102.0074 258.1079 15.08810644108659,6917.97,95.439,540.829,538.842,0.0
53543.0,STARLINK-4297,PAYLOAD,2024-08-06 12:19:50,15.08822867,0.0001245,53.2163,148.6986,81.7228,278.3905,1.7765e-05,-5e-08,0.0,0 STARLINK-4297,1 53543U 22101S   24219.51378088 -.00000005  00000-0  17765-4 0  9990,2 53543  53.2163 148.6986 0001245  81.7228 278.3905 15.08822867108712,6917.933,95.439,540.659,538.936,0.0
53543.0,STARLINK-4297,PAYLOAD,2024-08-07 01:02:55,15.088491,0.0001055,53.2147,146.3218,92.4977,267.6136,0.0010729,0.00016833,0.0,0 STARLINK-4297,1 53543U 22101S   24220.04369917  .00016833  00000-0  10729-2 0  9997,2 53543  53.2147 146.3218 0001055  92.4977 267.6136 15.08849100108790,6917.853,95.437,540.447,538.988,0.0
53543.0,STARLINK-4297,PAYLOAD,2024-08-08 04:04:27,15.08869925,0.0001675,53.2165,141.2649,124.3648,235.7503,0.00053526,8.248e-05,0.0,0 STARLINK-4297,1 53543U 22101S   24221.16976543  .00008248  00000-0  53526-3 0  9994,2 53543  53.2165 141.2649 0001675 124.3648 235.7503 15.08869925109657,6917.789,95.436,540.813,538.495,0.0
53543.0,STARLINK-4297,PAYLOAD,2024-08-09 03:55:15,15.08852892,0.0001657,53.2166,136.8009,100.8435,259.2743,0.001164,0.00018292,0.0,0 STARLINK-4297,1 53543U 22101S   24222.16336934  .00018292  00000-0  11640-2 0  9999,2 53543  53.2166 136.8009 0001657 100.8435 259.2743 15.08852892109114,6917.841,95.437,540.852,538.56,0.0
53543.0,STARLINK-4297,PAYLOAD,2024-08-09 11:52:10,15.0884432,0.0001415,53.2163,135.3177,109.1956,250.9189,0.0004116,6.269e-05,0.0,0 STARLINK-4297,1 53543U 22101S   24222.49457080  .00006269  00000-0  41160-3 0  9993,2 53543  53.2163 135.3177 0001415 109.1956 250.9189 15.08844320109167,6917.867,95.437,540.711,538.753,0.0
53543.0,STARLINK-4297,PAYLOAD,2024-08-09 21:24:29,15.08841404,0.0001837,53.2166,133.5309,115.7123,244.4059,0.0010685,0.00016759,0.0,0 STARLINK-4297,1 53543U 22101S   24222.89201127  .00016759  00000-0  10685-2 0  9998,2 53543  53.2166 133.5309 0001837 115.7123 244.4059 15.08841404109911,6917.876,95.437,541.012,538.47,0.0
53543.0,STARLINK-4297,PAYLOAD,2024-08-10 00:35:16,15.08846824,0.0001771,53.2173,132.9377,111.419,248.6991,0.0013218,0.00020815,0.0,0 STARLINK-4297,1 53543U 22101S   24223.02449170  .00020815  00000-0  13218-2 0  9999,2 53543  53.2173 132.9377 0001771 111.4190 248.6991 15.08846824109935,6917.86,95.437,540.95,538.499,0.0
53543.0,STARLINK-4297,PAYLOAD,2024-08-10 18:04:30,15.08850298,0.0001582,53.2161,129.6694,97.8769,262.2403,0.00085428,0.00013338,0.0,0 STARLINK-4297,1 53543U 22101S   24223.75313301  .00013338  00000-0  85428-3 0  9990,2 53543  53.2161 129.6694 0001582  97.8769 262.2403 15.08850298109352,6917.849,95.437,540.808,538.62,0.0
53543.0,STARLINK-4297,PAYLOAD,2024-08-10 22:50:39,15.08860559,0.0001439,53.2163,128.7772,103.5249,256.5903,0.00099896,0.00015655,0.0,0 STARLINK-4297,1 53543U 22101S   24223.95184985  .00015655  00000-0  99896-3 0  9994,2 53543  53.2163 128.7772 0001439 103.5249 256.5903 15.08860559110073,6917.818,95.436,540.678,538.687,0.0
53543.0,STARLINK-4297,PAYLOAD,2024-08-11 03:36:48,15.08873138,0.0001428,53.216,127.8827,86.4785,273.6371,0.001379,0.00021747,0.0,0 STARLINK-4297,1 53543U 22101S   24224.15056656  .00021747  00000-0  13790-2 0  9997,2 53543  53.2160 127.8827 0001428  86.4785 273.6371 15.08873138109415,6917.779,95.435,540.632,538.656,0.0
53543.0,STARLINK-4297,PAYLOAD,2024-08-11 17:55:17,15.08846011,5.93e-05,53.2168,125.2097,96.6922,263.4138,0.0010581,0.00016595,0.0,0 STARLINK-4297,1 53543U 22101S   24224.74673030  .00016595  00000-0  10581-2 0  9993,2 53543  53.2168 125.2097 0000593  96.6922 263.4138 15.08846011109500,6917.862,95.437,540.137,539.317,0.0
53543.0,STARLINK-4297,PAYLOAD,2024-08-11 22:41:26,15.08856377,0.0001384,53.2165,124.3183,114.8719,245.2417,0.0017335,0.00027421,0.0,0 STARLINK-4297,1 53543U 22101S   24224.94544818  .00027421  00000-0  17335-2 0  9990,2 53543  53.2165 124.3183 0001384 114.8719 245.2417 15.08856377110224,6917.83,95.437,540.653,538.738,0.0
53543.0,STARLINK-4297,PAYLOAD,2024-08-12 01:52:12,15.0886727,0.0001412,53.217,123.7243,112.8861,247.228,0.0023038,0.00036595,0.0,0 STARLINK-4297,1 53543U 22101S   24225.07792623  .00036595  00000-0  23038-2 0  9993,2 53543  53.2170 123.7243 0001412 112.8861 247.2280 15.08867270109556,6917.797,95.436,540.639,538.685,0.0
53543.0,STARLINK-4297,PAYLOAD,2024-08-12 09:49:08,15.08860311,0.000174,53.2165,122.237,105.1954,254.9231,0.00097778,0.00015316,0.0,0 STARLINK-4297,1 53543U 22101S   24225.40912503  .00015316  00000-0  97778-3 0  9992,2 53543  53.2165 122.2370 0001740 105.1954 254.9231 15.08860311109603,6917.818,95.436,540.887,538.48,0.0
